K12L18V 18.84  0.15 K151Q 359.85006   46.07550   91.40226    5.26662  0.0210391  0.26822058   2.3812664    FO 210215     5  **  4.7 hrs  0.05 *** **  Find_Orb   **** 2012 LV18                   20150126
K12O07F 18.48  0.15 K151Q 359.86934   64.70185   74.07448    4.61128  0.0053642  0.23355651   2.6114080    FO 210215     5  **  4.7 hrs  0.10 *** **  Find_Orb   **** 2012 OF7                    20150126
K13R42P 20.59  0.15 K151Q  54.61175   12.07215   29.24806    4.79295  0.3549064  0.24554269   2.5257171    FO 210215     4  **  4.4 hrs  0.10 *** **  Find_Orb   **** 2013 RP42                   20150126
K13TA8F 19.05  0.15 K151R 180.11124  271.74503   45.08770    5.08121  0.0551412  0.30013038   2.2093409    FO 210215     4  **   69 min  0.08 *** **  Find_Orb   **** 2013 TF108                  20150126
K13TB5O 18.05  0.15 K151Q 359.86920  122.62312   16.46181    6.56714  0.0000526  0.23542987   2.5975366    FO 210215     5  **  4.8 hrs  0.04 *** **  Find_Orb   **** 2013 TO115                  20150126
K13TE0M 19.35  0.15 K151Q 179.84125  291.03692   26.85207    4.33427  0.0145681  0.28298663   2.2976935    FO 210215     5  **  4.7 hrs  0.17 *** **  Find_Orb   **** 2013 TM140                  20150126
K14Wg8B 18.50  0.15 K151R   0.09914   30.94357  104.95358    7.32666  0.1898592  0.26921212   2.3754158    FO 210215     4  **   69 min  0.05 *** **  Find_Orb   **** 2014 WB428                  20150126
K15Bs6H 17.94  0.15 K151Q 179.87894  309.55821    8.56952    6.75545  0.0728218  0.21984552   2.7188859    FO 210215     5  **  4.8 hrs  0.04 *** **  Find_Orb   **** 2015 BH546                  20150126
K15Bt1S 18.59  0.15 K151Q 359.88062  132.52279    7.34340    6.60030  0.0616714  0.21400712   2.7681135    FO 210215     5  **  4.4 hrs  0.07 *** **  Find_Orb   **** 2015 BS551                  20150126
K15Bv0P 18.84  0.15 K151Q 359.88134  161.55506  335.85940   12.82763  0.1643967  0.21151653   2.7898006    FO 210215     5  **  4.7 hrs  0.09 *** **  Find_Orb   **** 2015 BP570                  20150126
K15Bw2F 19.19  0.15 K151Q  25.93675   91.96159  348.52301    7.13772  0.3564466  0.26745732   2.3857947    FO 210215     4  **  4.4 hrs  0.15 *** **  Find_Orb   **** 2015 BF582                  20150126
K15Bw7U 20.20  0.15 K151Q 359.85667   70.05678   65.70746    3.62464  0.2198310  0.25441160   2.4666722    FO 210215     5  **  4.7 hrs  0.20 *** **  Find_Orb   **** 2015 BU587                  20150126
K15Bx2L 17.61  0.15 K151R   0.09819   66.56075   70.64388    4.40928  0.1176332  0.26666655   2.3905088    FO 210215     3  **   45 min  0.05 *** **  Find_Orb   **** 2015 BL592                  20150126
K15C02Q 19.89  0.15 K151R  21.31459  109.51429  340.57915    6.13761  0.3396652  0.27687884   2.3313611    FO 210215     3  **   45 min  0.06 *** **  Find_Orb   **** 2015 CQ2                    20150126
K15C14V 19.94  0.15 K151Q 359.84715  110.09423   25.22336    3.26040  0.1837514  0.27226234   2.3576409    FO 210215     5  **  4.7 hrs  0.02 *** **  Find_Orb   **** 2015 CV14                   20150126
K15C30N 18.37  0.15 K151Q 359.87597  145.98174  350.93714    6.85864  0.1373489  0.22186913   2.7023284    FO 210215     5  **  4.7 hrs  0.18 *** **  Find_Orb   **** 2015 CN30                   20150126
K15C30R 18.96  0.15 K151Q 179.83309  233.22226   84.51473    5.70248  0.0490512  0.29753573   2.2221667    FO 210215     5  **  4.7 hrs  0.26 *** **  Find_Orb   **** 2015 CR30                   20150126
K15C30S 20.22  0.15 K151Q   9.00678   75.08403   45.50981    3.50548  0.2262182  0.26344885   2.4099342    FO 210215     5  **  4.7 hrs  0.13 *** **  Find_Orb   **** 2015 CS30                   20150126
K15C30V 16.81  0.15 K151Q 179.90042  264.30429   55.58484    5.79803  0.0685368  0.18157951   3.0885751    FO 210215     4  **  4.8 hrs  0.07 *** **  Find_Orb   **** 2015 CV30                   20150126
K15C30W 20.00  0.15 K151Q 359.84719  106.25939   29.72310    3.88667  0.1857765  0.27124974   2.3635048    FO 210215     5  **  4.7 hrs  0.10 *** **  Find_Orb   **** 2015 CW30                   20150126
K15C69K 17.99  0.15 K151Q 179.88309  243.28162   75.68822    5.24703  0.0419493  0.21042439   2.7994454    FO 210215     5  **  4.7 hrs  0.04 *** **  Find_Orb   **** 2015 CK69                   20150126
K15C72A 19.16  0.15 K151R  25.63446  334.81542  111.56908    7.55974  0.3088476  0.30111690   2.2045128    FO 210215     3  **   45 min  0.11 *** **  Find_Orb   **** 2015 CA72                   20150126
K15E10T 17.20  0.15 K151Q 359.89584  158.30289  340.88935   12.04375  0.0375554  0.18680559   3.0306990    FO 210215     5  **  4.7 hrs  0.07 *** **  Find_Orb   **** 2015 ET10                   20150126
K15E12A 17.96  0.15 K151Q 359.87375   76.64363   61.41858    5.66030  0.0197594  0.22850456   2.6497575    FO 210215     4  **  4.8 hrs  0.13 *** **  Find_Orb   **** 2015 EA12                   20150126
K15E12K 17.50  0.15 K151Q 359.90151   32.71910  106.68051    9.64762  0.0650378  0.17886169   3.1197838    FO 210215     5  **  4.8 hrs  0.17 *** **  Find_Orb   **** 2015 EK12                   20150126
K15E12U 17.09  0.15 K151Q 359.89564   95.45759   44.34828    6.24411  0.0316828  0.18851795   3.0123186    FO 210215     5  **  4.8 hrs  0.05 *** **  Find_Orb   **** 2015 EU12                   20150126
K15E13F 20.12  0.15 K151R   0.10248  116.01376   20.61223    4.65794  0.1636806  0.28236579   2.3010603    FO 210215     4  **   48 min  0.02 *** **  Find_Orb   **** 2015 EF13                   20150126
K15E16O 16.79  0.15 K151Q 179.89999  254.28662   67.15745    6.26032  0.0647104  0.18060504   3.0996748    FO 210215     5  **  4.4 hrs  0.07 *** **  Find_Orb   **** 2015 EO16                   20150126
K15E18N 20.29  0.15 K151Q 359.84517   76.17925   59.44886    4.54899  0.1718236  0.27825192   2.3236851    FO 210215     4  **  4.8 hrs  0.17 *** **  Find_Orb   **** 2015 EN18                   20150126
K15E18P 18.05  0.15 K151Q 359.84935   38.07672  100.52039    7.80128  0.0183947  0.26930810   2.3748514    FO 210215     5  **  4.4 hrs  0.09 *** **  Find_Orb   **** 2015 EP18                   20150126
K15E18R 19.16  0.15 K151Q 359.87015   85.54465   51.44029    5.12446  0.1944891  0.23259587   2.6185933    FO 210215     5  **  4.8 hrs  0.11 *** **  Find_Orb   **** 2015 ER18                   20150126
K15E59L 18.52  0.15 K151Q 359.84734   69.35180   69.09176    5.68904  0.0068109  0.27408927   2.3471528    FO 210215     5  **  4.8 hrs  0.03 *** **  Find_Orb   **** 2015 EL59                   20150126
K15E66F 17.53  0.15 K151Q 179.88760  256.60591   63.30249    4.98168  0.0126137  0.20160064   2.8805457    FO 210215     5  **  4.7 hrs  0.07 *** **  Find_Orb   **** 2015 EF66                   20150126
K16EK9R 18.91  0.15 K151Q 359.89744   27.40408  112.59645   11.56806  0.0474113  0.18394347   3.0620561    FO 210215     5  **  4.7 hrs  0.28 *** **  Find_Orb   **** 2016 ER209                  20150126
K16G70W 18.46  0.15 K151Q 359.84616  111.29080   24.01995    4.42442  0.2374112  0.27864461   2.3215014    FO 210215     3  **  4.4 hrs  0.10 *** **  Find_Orb   **** 2016 GW70                   20150126
K16J19L 15.49  0.15 K151Q 359.89869   38.66185  101.48861   10.04852  0.0411712  0.18575386   3.0421280    FO 210215     3  **  4.4 hrs  0.01 *** **  Find_Orb   **** 2016 JL19                   20150126
K16L29V 18.03  0.15 K151R  29.90436  339.41334   99.95941    4.91067  0.3109623  0.27639316   2.3340914    FO 210215     3  **   45 min  0.08 *** **  Find_Orb   **** 2016 LV29                   20150126
K16L38A 17.96  0.15 K151Q 179.87116  198.79399  120.34874   13.30010  0.1116345  0.23188319   2.6239560    FO 210215     5  **  4.7 hrs  0.09 *** **  Find_Orb   **** 2016 LA38                   20150126
K16R08H 16.31  0.15 K151Q 179.79960  347.65891  328.60493   20.12504  0.0883766  0.36531173   1.9380291    FO 210215     3  **  4.0 hrs  0.04 *** **  Find_Orb   **** 2016 RH8                    20150126
K17Q56P 19.90  0.15 K151R   0.10053   90.86580   44.45867    3.60760  0.1749171  0.27669429   2.3323976    FO 210215     4  **   65 min  0.06 *** **  Find_Orb   **** 2017 QP56                   20150126
K17R46P 17.69  0.15 K151R   0.10683  131.91809    3.45657    4.83694  0.1515351  0.28853909   2.2681213    FO 210215     3  **   45 min  0.01 *** **  Find_Orb   **** 2017 RP46                   20150126
K18R18E 19.12  0.15 K151Q 359.87728  156.17625  340.67823   11.91099  0.1383452  0.22148489   2.7054530    FO 210215     4  **  4.8 hrs  0.39 *** **  Find_Orb   **** 2018 RE18                   20150126
K18VB5E 20.12  0.15 K151Q 359.83291   42.99050   94.35321    7.00426  0.0470712  0.29928540   2.2134975    FO 210215     5  **  4.8 hrs  0.10 *** **  Find_Orb   **** 2018 VE115                  20150126
04630   14.07  0.15 K151Q 179.86702  264.67461   54.52170    5.47561  0.0112191  0.23942180   2.5685829    FO 210215     5  **  4.8 hrs  0.04 *** **  Find_Orb   **** (4630)                      20150126
06769   11.83  0.15 K151Q 359.84810   79.99447   56.70507    3.82949  0.1038685  0.27293073   2.3537902    FO 210215     3  **  4.4 hrs  0.05 *** **  Find_Orb   **** (6769)                      20150126
09862   15.59  0.15 K151Q 179.84450  268.37273   49.83267    4.98942  0.0054646  0.27918639   2.3184971    FO 210215     5  **  4.8 hrs  0.25 *** **  Find_Orb   **** (9862)                      20150126
14952   15.52  0.15 K151Q 359.84655  102.28452   34.64885    5.15859  0.0907795  0.27893223   2.3199053    FO 210215     4  **  4.4 hrs  0.08 *** **  Find_Orb   **** (14952)                     20150126
17357   16.36  0.15 K151Q 359.84739   38.90045   97.77986    5.79911  0.1050847  0.27237530   2.3569890    FO 210215     5  **  4.7 hrs  0.28 *** **  Find_Orb   **** (17357)                     20150126
19641   15.09  0.15 K151Q 359.87525  136.06563    2.97039    7.37080  0.0337598  0.22362660   2.6881515    FO 210215     5  **  4.4 hrs  0.09 *** **  Find_Orb   **** (19641)                     20150126
